{
  "type": "FeatureCollection",
  "features": [
    {
      "type": "Feature",
      "properties": {
        "norad_id": 28890,
        "name": "BEIJING 1",
        "group": "dmc",
        "lat": -56.296054448128075,
        "lon": 123.28913885775849,
        "alt_km": 698.714655725109,
        "timestamp": "2025-12-09T04:51:47.174767+00:00",
        "meta_object_name": "BEIJING 1",
        "meta_object_id": "2005-043A",
        "meta_epoch": "2025-12-08T20:55:10.884864",
        "meta_mean_motion": 14.63361705,
        "meta_eccentricity": 0.0015069,
        "meta_inclination": 98.2656,
        "meta_ra_of_asc_node": 110.3696,
        "meta_arg_of_pericenter": 152.7382,
        "meta_mean_anomaly": 207.4614,
        "meta_ephemeris_type": 0,
        "meta_classification_type": "U",
        "meta_norad_cat_id": 28890,
        "meta_element_set_no": 999,
        "meta_rev_at_epoch": 7281,
        "meta_bstar": 0.00020815,
        "meta_mean_motion_dot": 1.028e-05,
        "meta_mean_motion_ddot": 0,
        "tle_line1": "1 28890U 05043A   25342.87165376  .00001028  00000+0  20815-3 0  9997",
        "tle_line2": "2 28890  98.2656 110.3696 0015069 152.7382 207.4614 14.63361705 72818"
      },
      "geometry": {
        "type": "Point",
        "coordinates": [
          123.28913885775849,
          -56.296054448128075
        ]
      }
    },
    {
      "type": "Feature",
      "properties": {
        "norad_id": 33320,
        "name": "HUANJING 1A (HJ-1A)",
        "group": "dmc",
        "lat": 73.92954809276188,
        "lon": -56.17845235868048,
        "alt_km": 599.331604422131,
        "timestamp": "2025-12-09T04:51:47.174793+00:00",
        "meta_object_name": "HUANJING 1A (HJ-1A)",
        "meta_object_id": "2008-041A",
        "meta_epoch": "2025-12-08T20:25:45.066720",
        "meta_mean_motion": 14.83375132,
        "meta_eccentricity": 0.002037,
        "meta_inclination": 97.6538,
        "meta_ra_of_asc_node": 331.3118,
        "meta_arg_of_pericenter": 46.5497,
        "meta_mean_anomaly": 313.7408,
        "meta_ephemeris_type": 0,
        "meta_classification_type": "U",
        "meta_norad_cat_id": 33320,
        "meta_element_set_no": 999,
        "meta_rev_at_epoch": 93018,
        "meta_bstar": 0.00035082,
        "meta_mean_motion_dot": 2.836e-05,
        "meta_mean_motion_ddot": 0,
        "tle_line1": "1 33320U 08041A   25342.85121605  .00002836  00000+0  35082-3 0  9997",
        "tle_line2": "2 33320  97.6538 331.3118 0020370  46.5497 313.7408 14.83375132930182"
      },
      "geometry": {
        "type": "Point",
        "coordinates": [
          -56.17845235868048,
          73.92954809276188
        ]
      }
    },
    {
      "type": "Feature",
      "properties": {
        "norad_id": 33321,
        "name": "HUANJING 1B (HJ-1B)",
        "group": "dmc",
        "lat": -55.46711579793163,
        "lon": -13.397494794242824,
        "alt_km": 648.882535132374,
        "timestamp": "2025-12-09T04:51:47.174809+00:00",
        "meta_object_name": "HUANJING 1B (HJ-1B)",
        "meta_object_id": "2008-041B",
        "meta_epoch": "2025-12-08T21:01:09.424992",
        "meta_mean_motion": 14.82805494,
        "meta_eccentricity": 0.0038228,
        "meta_inclination": 97.6395,
        "meta_ra_of_asc_node": 335.0424,
        "meta_arg_of_pericenter": 87.9351,
        "meta_mean_anomaly": 272.6241,
        "meta_ephemeris_type": 0,
        "meta_classification_type": "U",
        "meta_norad_cat_id": 33321,
        "meta_element_set_no": 999,
        "meta_rev_at_epoch": 93020,
        "meta_bstar": 0.00024812,
        "meta_mean_motion_dot": 1.981e-05,
        "meta_mean_motion_ddot": 0,
        "tle_line1": "1 33321U 08041B   25342.87580353  .00001981  00000+0  24812-3 0  9998",
        "tle_line2": "2 33321  97.6395 335.0424 0038228  87.9351 272.6241 14.82805494930203"
      },
      "geometry": {
        "type": "Point",
        "coordinates": [
          -13.397494794242824,
          -55.46711579793163
        ]
      }
    },
    {
      "type": "Feature",
      "properties": {
        "norad_id": 33446,
        "name": "YAOGAN-4",
        "group": "dmc",
        "lat": -36.986364427373516,
        "lon": 87.31957034497442,
        "alt_km": 631.8808337461587,
        "timestamp": "2025-12-09T04:51:47.174822+00:00",
        "meta_object_name": "YAOGAN-4",
        "meta_object_id": "2008-061A",
        "meta_epoch": "2025-12-08T19:47:11.729184",
        "meta_mean_motion": 14.82664885,
        "meta_eccentricity": 0.0013919,
        "meta_inclination": 97.9177,
        "meta_ra_of_asc_node": 272.962,
        "meta_arg_of_pericenter": 336.595,
        "meta_mean_anomaly": 23.4628,
        "meta_ephemeris_type": 0,
        "meta_classification_type": "U",
        "meta_norad_cat_id": 33446,
        "meta_element_set_no": 999,
        "meta_rev_at_epoch": 91745,
        "meta_bstar": 0.00038742,
        "meta_mean_motion_dot": 3.075e-05,
        "meta_mean_motion_ddot": 0,
        "tle_line1": "1 33446U 08061A   25342.82444131  .00003075  00000+0  38742-3 0  9999",
        "tle_line2": "2 33446  97.9177 272.9620 0013919 336.5950  23.4628 14.82664885917457"
      },
      "geometry": {
        "type": "Point",
        "coordinates": [
          87.31957034497442,
          -36.986364427373516
        ]
      }
    },
    {
      "type": "Feature",
      "properties": {
        "norad_id": 35681,
        "name": "DEIMOS-1",
        "group": "dmc",
        "lat": 81.09785197052022,
        "lon": 84.03984303059114,
        "alt_km": 635.9953190845399,
        "timestamp": "2025-12-09T04:51:47.174833+00:00",
        "meta_object_name": "DEIMOS-1",
        "meta_object_id": "2009-041A",
        "meta_epoch": "2025-12-08T20:20:09.487392",
        "meta_mean_motion": 14.74944311,
        "meta_eccentricity": 0.0002709,
        "meta_inclination": 97.7145,
        "meta_ra_of_asc_node": 143.6315,
        "meta_arg_of_pericenter": 85.7142,
        "meta_mean_anomaly": 274.4377,
        "meta_ephemeris_type": 0,
        "meta_classification_type": "U",
        "meta_norad_cat_id": 35681,
        "meta_element_set_no": 999,
        "meta_rev_at_epoch": 87882,
        "meta_bstar": 0.00019693,
        "meta_mean_motion_dot": 1.276e-05,
        "meta_mean_motion_ddot": 0,
        "tle_line1": "1 35681U 09041A   25342.84733203  .00001276  00000+0  19693-3 0  9999",
        "tle_line2": "2 35681  97.7145 143.6315 0002709  85.7142 274.4377 14.74944311878821"
      },
      "geometry": {
        "type": "Point",
        "coordinates": [
          84.03984303059114,
          81.09785197052022
        ]
      }
    },
    {
      "type": "Feature",
      "properties": {
        "norad_id": 35683,
        "name": "UK-DMC 2",
        "group": "dmc",
        "lat": 81.86432984766098,
        "lon": 13.189479191397101,
        "alt_km": 634.802484934824,
        "timestamp": "2025-12-09T04:51:47.174843+00:00",
        "meta_object_name": "UK-DMC 2",
        "meta_object_id": "2009-041C",
        "meta_epoch": "2025-12-08T20:18:36.743904",
        "meta_mean_motion": 14.75609397,
        "meta_eccentricity": 0.0001358,
        "meta_inclination": 97.8562,
        "meta_ra_of_asc_node": 117.8592,
        "meta_arg_of_pericenter": 96.0202,
        "meta_mean_anomaly": 264.1162,
        "meta_ephemeris_type": 0,
        "meta_classification_type": "U",
        "meta_norad_cat_id": 35683,
        "meta_element_set_no": 999,
        "meta_rev_at_epoch": 87849,
        "meta_bstar": 0.00026856,
        "meta_mean_motion_dot": 1.783e-05,
        "meta_mean_motion_ddot": 0,
        "tle_line1": "1 35683U 09041C   25342.84625861  .00001783  00000+0  26856-3 0  9993",
        "tle_line2": "2 35683  97.8562 117.8592 0001358  96.0202 264.1162 14.75609397878492"
      },
      "geometry": {
        "type": "Point",
        "coordinates": [
          13.189479191397101,
          81.86432984766098
        ]
      }
    },
    {
      "type": "Feature",
      "properties": {
        "norad_id": 40715,
        "name": "DMC3-FM1",
        "group": "dmc",
        "lat": 16.035700811590228,
        "lon": -151.6961052350126,
        "alt_km": 610.3636287251647,
        "timestamp": "2025-12-09T04:51:47.174854+00:00",
        "meta_object_name": "DMC3-FM1",
        "meta_object_id": "2015-032A",
        "meta_epoch": "2025-12-08T20:42:25.523424",
        "meta_mean_motion": 14.85431424,
        "meta_eccentricity": 0.0004926,
        "meta_inclination": 97.669,
        "meta_ra_of_asc_node": 210.1961,
        "meta_arg_of_pericenter": 336.2502,
        "meta_mean_anomaly": 23.8485,
        "meta_ephemeris_type": 0,
        "meta_classification_type": "U",
        "meta_norad_cat_id": 40715,
        "meta_element_set_no": 999,
        "meta_rev_at_epoch": 56165,
        "meta_bstar": 0.00022,
        "meta_mean_motion_dot": 1.845e-05,
        "meta_mean_motion_ddot": 0,
        "tle_line1": "1 40715U 15032A   25342.86279541  .00001845  00000+0  22000-3 0  9990",
        "tle_line2": "2 40715  97.6690 210.1961 0004926 336.2502  23.8485 14.85431424561657"
      },
      "geometry": {
        "type": "Point",
        "coordinates": [
          -151.6961052350126,
          16.035700811590228
        ]
      }
    },
    {
      "type": "Feature",
      "properties": {
        "norad_id": 40716,
        "name": "DMC3-FM2",
        "group": "dmc",
        "lat": -74.06366755744823,
        "lon": 3.78404491263387,
        "alt_km": 619.1462023629274,
        "timestamp": "2025-12-09T04:51:47.174864+00:00",
        "meta_object_name": "DMC3-FM2",
        "meta_object_id": "2015-032B",
        "meta_epoch": "2025-12-08T21:14:49.424928",
        "meta_mean_motion": 14.85433881,
        "meta_eccentricity": 0.0005623,
        "meta_inclination": 97.6749,
        "meta_ra_of_asc_node": 211.6592,
        "meta_arg_of_pericenter": 341.2099,
        "meta_mean_anomaly": 18.8908,
        "meta_ephemeris_type": 0,
        "meta_classification_type": "U",
        "meta_norad_cat_id": 40716,
        "meta_element_set_no": 999,
        "meta_rev_at_epoch": 56165,
        "meta_bstar": 0.000205,
        "meta_mean_motion_dot": 1.716e-05,
        "meta_mean_motion_ddot": 0,
        "tle_line1": "1 40716U 15032B   25342.88529427  .00001716  00000+0  20500-3 0  9994",
        "tle_line2": "2 40716  97.6749 211.6592 0005623 341.2099  18.8908 14.85433881561654"
      },
      "geometry": {
        "type": "Point",
        "coordinates": [
          3.78404491263387,
          -74.06366755744823
        ]
      }
    },
    {
      "type": "Feature",
      "properties": {
        "norad_id": 40717,
        "name": "DMC3-FM3",
        "group": "dmc",
        "lat": 38.88270547117058,
        "lon": 39.84299863922465,
        "alt_km": 612.6474114944713,
        "timestamp": "2025-12-09T04:51:47.174874+00:00",
        "meta_object_name": "DMC3-FM3",
        "meta_object_id": "2015-032C",
        "meta_epoch": "2025-12-08T21:45:55.507680",
        "meta_mean_motion": 14.85420671,
        "meta_eccentricity": 0.0005035,
        "meta_inclination": 97.6804,
        "meta_ra_of_asc_node": 213.3103,
        "meta_arg_of_pericenter": 342.7461,
        "meta_mean_anomaly": 17.3583,
        "meta_ephemeris_type": 0,
        "meta_classification_type": "U",
        "meta_norad_cat_id": 40717,
        "meta_element_set_no": 999,
        "meta_rev_at_epoch": 56166,
        "meta_bstar": 7.487e-05,
        "meta_mean_motion_dot": 5.93e-06,
        "meta_mean_motion_ddot": 0,
        "tle_line1": "1 40717U 15032C   25342.90689245  .00000593  00000+0  74870-4 0  9995",
        "tle_line2": "2 40717  97.6804 213.3103 0005035 342.7461  17.3583 14.85420671561667"
      },
      "geometry": {
        "type": "Point",
        "coordinates": [
          39.84299863922465,
          38.88270547117058
        ]
      }
    }
  ]
}